{"type": "FeatureCollection", "features": [ {"type": "Feature", "properties": {"norad_id": 35242, "name": "FENGYUN 1C DEB", "group": "fengyun-1c-debris", "lat": -79.00117479559017, "lon": 93.58156904339559, "alt_km": 953.9788139695265, "timestamp": "2025-12-02T06:27:53.301408+00:00", "meta": {"OBJECT_NAME": "FENGYUN 1C DEB", "OBJECT_ID": "1999-025DRA", "EPOCH": "2025-11-30T22:04:23.860704", "MEAN_MOTION": 13.52294722, "ECCENTRICITY": 0.03015867, "INCLINATION": 99.9707, "RA_OF_ASC_NODE": 27.3938, "ARG_OF_PERICENTER": 217.9619, "MEAN_ANOMALY": 326.6369, "EPHEMERIS_TYPE": 0, "CLASSIFICATION_TYPE": "U", "NORAD_CAT_ID": 35242, "ELEMENT_SET_NO": 999, "REV_AT_EPOCH": 57967, "BSTAR": 0.0020813864, "MEAN_MOTION_DOT": 1.781e-05, "MEAN_MOTION_DDOT": 0}, "tle": {"line1": "1 35242U 99025DRA 25334.91972061  .00001781  00000+0  20814-2 0  9996", "line2": "2 35242  99.9707  27.3938 0301586 217.9619 326.6369 13.52294722579675"}}, "geometry": {"type": "Point", "coordinates": [93.58156904339559, -79.00117479559017]}}, {"type": "Feature", "properties": {"norad_id": 35243, "name": "FENGYUN 1C DEB", "group": "fengyun-1c-debris", "lat": -51.041991856300406, "lon": 65.0740362683421, "alt_km": 572.2392616073785, "timestamp": "2025-12-02T06:27:53.301418+00:00", "meta": {"OBJECT_NAME": "FENGYUN 1C DEB", "OBJECT_ID": "1999-025DRB", "EPOCH": "2025-12-01T11:18:26.496864", "MEAN_MOTION": 14.86280097, "ECCENTRICITY": 0.00662914, "INCLINATION": 98.8826, "RA_OF_ASC_NODE": 53.0309, "ARG_OF_PERICENTER": 292.8769, "MEAN_ANOMALY": 66.5454, "EPHEMERIS_TYPE": 0, "CLASSIFICATION_TYPE": "U", "NORAD_CAT_ID": 35243, "ELEMENT_SET_NO": 999, "REV_AT_EPOCH": 90833, "BSTAR": 0.0029026481, "MEAN_MOTION_DOT": 0.00026601, "MEAN_MOTION_DDOT": 0}, "tle": {"line1": "1 35243U 99025DRB 25335.47114001  .00026601  00000+0  29026-2 0  9993", "line2": "2 35243  98.8826  53.0309 0066291 292.8769  66.5454 14.86280097908335"}}, "geometry": {"type": "Point", "coordinates": [65.0740362683421, -51.041991856300406]}}, {"type": "Feature", "properties": {"norad_id": 35244, "name": "FENGYUN 1C DEB", "group": "fengyun-1c-debris", "lat": 61.075660198024124, "lon": 0.3654760024121153, "alt_km": 893.8506999791716, "timestamp": "2025-12-02T06:27:53.301428+00:00", "meta": {"OBJECT_NAME": "FENGYUN 1C DEB", "OBJECT_ID": "1999-025DRC", "EPOCH": "2025-11-28T08:16:08.942880", "MEAN_MOTION": 14.06587335, "ECCENTRICITY": 0.00714695, "INCLINATION": 98.8424, "RA_OF_ASC_NODE": 12.8921, "ARG_OF_PERICENTER": 197.497, "MEAN_ANOMALY": 162.3735, "EPHEMERIS_TYPE": 0, "CLASSIFICATION_TYPE": "U", "NORAD_CAT_ID": 35244, "ELEMENT_SET_NO": 999, "REV_AT_EPOCH": 65619, "BSTAR": 0.00065997772, "MEAN_MOTION_DOT": 1.076e-05, "MEAN_MOTION_DDOT": 0}, "tle": {"line1": "1 35244U 99025DRC 25332.34454795  .00001076  00000+0  65998-3 0  9992", "line2": "2 35244  98.8424  12.8921 0071469 197.4970 162.3735 14.06587335656198"}}, "geometry": {"type": "Point", "coordinates": [0.3654760024121153, 61.075660198024124]}}, {"type": "Feature", "properties": {"norad_id": 35245, "name": "FENGYUN 1C DEB", "group": "fengyun-1c-debris", "lat": 74.92379586566341, "lon": 25.192024345471385, "alt_km": 872.9468705325835, "timestamp": "2025-12-02T06:27:53.301438+00:00", "meta": {"OBJECT_NAME": "FENGYUN 1C DEB", "OBJECT_ID": "1999-025DRD", "EPOCH": "2025-11-30T17:25:47.192160", "MEAN_MOTION": 14.12968848, "ECCENTRICITY": 0.00580855, "INCLINATION": 99.0851, "RA_OF_ASC_NODE": 60.068, "ARG_OF_PERICENTER": 304.6373, "MEAN_ANOMALY": 207.7731, "EPHEMERIS_TYPE": 0, "CLASSIFICATION_TYPE": "U", "NORAD_CAT_ID": 35245, "ELEMENT_SET_NO": 999, "REV_AT_EPOCH": 87607, "BSTAR": 0.0016408197, "MEAN_MOTION_DOT": 3.062e-05, "MEAN_MOTION_DDOT": 0}, "tle": {"line1": "1 35245U 99025DRD 25334.72624065  .00003062  00000+0  16408-2 0  9994", "line2": "2 35245  99.0851  60.0680 0058085 304.6373 207.7731 14.12968848876071"}}, "geometry": {"type": "Point", "coordinates": [25.192024345471385, 74.92379586566341]}}, {"type": "Feature", "properties": {"norad_id": 36147, "name": "FENGYUN 1C DEB", "group": "fengyun-1c-debris", "lat": 75.3746370178383, "lon": -98.87707431533157, "alt_km": 1403.6644331344432, "timestamp": "2025-12-02T06:27:53.301448+00:00", "meta": {"OBJECT_NAME": "FENGYUN 1C DEB", "OBJECT_ID": "1999-025DRU", "EPOCH": "2025-11-30T21:50:24.807840", "MEAN_MOTION": 13.46453652, "ECCENTRICITY": 0.04407422, "INCLINATION": 98.5269, "RA_OF_ASC_NODE": 44.8692, "ARG_OF_PERICENTER": 293.3481, "MEAN_ANOMALY": 62.1872, "EPHEMERIS_TYPE": 0, "CLASSIFICATION_TYPE": "U", "NORAD_CAT_ID": 36147, "ELEMENT_SET_NO": 999, "REV_AT_EPOCH": 59838, "BSTAR": 0.0016909351, "MEAN_MOTION_DOT": 1.8e-05, "MEAN_MOTION_DDOT": 0}, "tle": {"line1": "1 36147U 99025DRU 25334.91000935  .00001800  00000+0  16909-2 0  9995", "line2": "2 36147  98.5269  44.8692 0440742 293.3481  62.1872 13.46453652598384"}}, "geometry": {"type": "Point", "coordinates": [-98.87707431533157, 75.3746370178383]}}, {"type": "Feature", "properties": {"norad_id": 36148, "name": "FENGYUN 1C DEB", "group": "fengyun-1c-debris", "lat": 49.61644106602093, "lon": 178.0939104768463, "alt_km": 764.6405713459262, "timestamp": "2025-12-02T06:27:53.301458+00:00", "meta": {"OBJECT_NAME": "FENGYUN 1C DEB", "OBJECT_ID": "1999-025DRV", "EPOCH": "2025-12-01T19:49:52.588704", "MEAN_MOTION": 13.84775796, "ECCENTRICITY": 0.0284419, "INCLINATION": 98.4221, "RA_OF_ASC_NODE": 187.7265, "ARG_OF_PERICENTER": 19.3374, "MEAN_ANOMALY": 341.832, "EPHEMERIS_TYPE": 0, "CLASSIFICATION_TYPE": "U", "NORAD_CAT_ID": 36148, "ELEMENT_SET_NO": 999, "REV_AT_EPOCH": 90093, "BSTAR": 0.003336, "MEAN_MOTION_DOT": 5.112e-05, "MEAN_MOTION_DDOT": 0}, "tle": {"line1": "1 36148U 99025DRV 25335.82630311  .00005112  00000+0  33360-2 0  9994", "line2": "2 36148  98.4221 187.7265 0284419  19.3374 341.8320 13.84775796900930"}}, "geometry": {"type": "Point", "coordinates": [178.0939104768463, 49.61644106602093]}}, {"type": "Feature", "properties": {"norad_id": 36152, "name": "FENGYUN 1C DEB", "group": "fengyun-1c-debris", "lat": 77.55209375813392, "lon": -28.059980968542504, "alt_km": 865.2465547903303, "timestamp": "2025-12-02T06:27:53.301468+00:00", "meta": {"OBJECT_NAME": "FENGYUN 1C DEB", "OBJECT_ID": "1999-025DRZ", "EPOCH": "2025-12-01T19:54:46.716768", "MEAN_MOTION": 14.17165266, "ECCENTRICITY": 0.0055192, "INCLINATION": 98.7567, "RA_OF_ASC_NODE": 15.7938, "ARG_OF_PERICENTER": 243.2962, "MEAN_ANOMALY": 116.2556, "EPHEMERIS_TYPE": 0, "CLASSIFICATION_TYPE": "U", "NORAD_CAT_ID": 36152, "ELEMENT_SET_NO": 999, "REV_AT_EPOCH": 64002, "BSTAR": 0.0012638, "MEAN_MOTION_DOT": 2.542e-05, "MEAN_MOTION_DDOT": 0}, "tle": {"line1": "1 36152U 99025DRZ 25335.82970737  .00002542  00000+0  12638-2 0  9997", "line2": "2 36152  98.7567  15.7938 0055192 243.2962 116.2556 14.17165266640021"}}, "geometry": {"type": "Point", "coordinates": [-28.059980968542504, 77.55209375813392]}}, {"type": "Feature", "properties": {"norad_id": 36163, "name": "FENGYUN 1C DEB", "group": "fengyun-1c-debris", "lat": 80.85874677107732, "lon": 82.88044866781655, "alt_km": 665.20513607471, "timestamp": "2025-12-02T06:27:53.301478+00:00", "meta": {"OBJECT_NAME": "FENGYUN 1C DEB", "OBJECT_ID": "1999-025DSL", "EPOCH": "2025-11-27T12:26:15.654336", "MEAN_MOTION": 14.58361311, "ECCENTRICITY": 0.00369307, "INCLINATION": 99.0776, "RA_OF_ASC_NODE": 174.1952, "ARG_OF_PERICENTER": 119.0745, "MEAN_ANOMALY": 241.4158, "EPHEMERIS_TYPE": 0, "CLASSIFICATION_TYPE": "U", "NORAD_CAT_ID": 36163, "ELEMENT_SET_NO": 999, "REV_AT_EPOCH": 88965, "BSTAR": 0.0029707469, "MEAN_MOTION_DOT": 0.00013857, "MEAN_MOTION_DDOT": 0}, "tle": {"line1": "1 36163U 99025DSL 25331.51823674  .00013857  00000+0  29707-2 0  9994", "line2": "2 36163  99.0776 174.1952 0036930 119.0745 241.4158 14.58361311889650"}}, "geometry": {"type": "Point", "coordinates": [82.88044866781655, 80.85874677107732]}}, {"type": "Feature", "properties": {"norad_id": 36167, "name": "FENGYUN 1C DEB", "group": "fengyun-1c-debris", "lat": -7.917790204591124, "lon": 61.74032288074498, "alt_km": 731.1967759472118, "timestamp": "2025-12-02T06:27:53.301488+00:00", "meta": {"OBJECT_NAME": "FENGYUN 1C DEB", "OBJECT_ID": "1999-025DSQ", "EPOCH": "2025-11-28T23:42:19.973088", "MEAN_MOTION": 14.49060184, "ECCENTRICITY": 0.00697894, "INCLINATION": 98.8118, "RA_OF_ASC_NODE": 239.5513, "ARG_OF_PERICENTER": 286.6163, "MEAN_ANOMALY": 72.7374, "EPHEMERIS_TYPE": 0, "CLASSIFICATION_TYPE": "U", "NORAD_CAT_ID": 36167, "ELEMENT_SET_NO": 999, "REV_AT_EPOCH": 67080, "BSTAR": 0.0012141916, "MEAN_MOTION_DOT": 4.705e-05, "MEAN_MOTION_DDOT": 0}, "tle": {"line1": "1 36167U 99025DSQ 25332.98773117  .00004705  00000+0  12142-2 0  9993", "line2": "2 36167  98.8118 239.5513 0069789 286.6163  72.7374 14.49060184670807"}}, "geometry": {"type": "Point", "coordinates": [61.74032288074498, -7.917790204591124]}}, {"type": "Feature", "properties": {"norad_id": 36173, "name": "FENGYUN 1C DEB", "group": "fengyun-1c-debris", "lat": 67.90199329009793, "lon": -86.78519455992296, "alt_km": 888.8158392541764, "timestamp": "2025-12-02T06:27:53.301498+00:00", "meta": {"OBJECT_NAME": "FENGYUN 1C DEB", "OBJECT_ID": "1999-025DSW", "EPOCH": "2025-11-27T03:07:28.371072", "MEAN_MOTION": 14.25142788, "ECCENTRICITY": 0.01460397, "INCLINATION": 98.2105, "RA_OF_ASC_NODE": 289.2336, "ARG_OF_PERICENTER": 231.4906, "MEAN_ANOMALY": 127.3105, "EPHEMERIS_TYPE": 0, "CLASSIFICATION_TYPE": "U", "NORAD_CAT_ID": 36173, "ELEMENT_SET_NO": 999, "REV_AT_EPOCH": 58868, "BSTAR": 0.00039734703, "MEAN_MOTION_DOT": 1e-05, "MEAN_MOTION_DDOT": 0}, "tle": {"line1": "1 36173U 99025DSW 25331.13018948  .00001000  00000+0  39735-3 0  9993", "line2": "2 36173  98.2105 289.2336 0146039 231.4906 127.3105 14.25142788588684"}}, "geometry": {"type": "Point", "coordinates": [-86.78519455992296, 67.90199329009793]}}]}